[{"OBJECT_NAME":"STARLINK-30953","OBJECT_ID":"2023-186U","EPOCH":"2026-03-08T23:49:57.390240","MEAN_MOTION":15.27577627,"ECCENTRICITY":8.588e-5,"INCLINATION":42.9984,"RA_OF_ASC_NODE":271.4328,"ARG_OF_PERICENTER":255.1282,"MEAN_ANOMALY":104.9475,"EPHEMERIS_TYPE":0,"CLASSIFICATION_TYPE":"U","NORAD_CAT_ID":58491,"ELEMENT_SET_NO":999,"REV_AT_EPOCH":12778,"BSTAR":-6.0877705e-5,"MEAN_MOTION_DOT":-1.936e-5,"MEAN_MOTION_DDOT":0},{"OBJECT_NAME":"TRANSPORTER-1 OBJECT Z","OBJECT_ID":"2021-006Z","EPOCH":"2026-03-09T22:55:57.522432","MEAN_MOTION":15.30965056,"ECCENTRICITY":0.00100878,"INCLINATION":97.2377,"RA_OF_ASC_NODE":113.4736,"ARG_OF_PERICENTER":179.6869,"MEAN_ANOMALY":180.438,"EPHEMERIS_TYPE":0,"CLASSIFICATION_TYPE":"U","NORAD_CAT_ID":47436,"ELEMENT_SET_NO":999,"REV_AT_EPOCH":28420,"BSTAR":0.00024088983,"MEAN_MOTION_DOT":7.143e-5,"MEAN_MOTION_DDOT":0}]
